{"type": "FeatureCollection", "features": [{"type": "Feature", "properties": {"City": "Wuhan"}, "geometry": {"type": "Polygon", "coordinates": [[[113.64496606750987, 30.44210010195423], [113.743164351339, 30.468783303108296], [113.78781776531933, 30.489683159262153], [113.82092215640094, 30.52286774823622], [113.8627530151755, 30.54811966632332], [113.89494322352799, 30.582138108318425], [113.9096360256757, 30.623148520106987], [113.90992583284475, 30.688331604763565], [113.88835719798479, 30.72673341168276], [113.91525887146592, 30.799719947273843], [113.96711822079047, 30.79934539465015], [114.0179520229774, 30.806484429213903], [114.06960173501372, 30.80602517911597], [114.12103308992168, 30.801044281148425], [114.18119080367059, 30.78578976361187], [114.18588177182555, 30.828958256338876], [114.18065570320616, 30.871899434433416], [114.1775120315491, 30.957875407583376], [114.1796255944302, 31.00100383846431], [114.17495696542264, 31.044190214801024], [114.19452792018943, 31.1292609430192], [114.21588258835507, 31.168344942726392], [114.2267003425709, 31.206024337874258], [114.20026232383499, 31.242963530847], [114.21535641923565, 31.283755359511492], [114.22639268515212, 31.32591175887235], [114.26134314017726, 31.38206962964406], [114.31677867053072, 31.371581819295855], [114.35621498085341, 31.342664606013752], [114.40455609845834, 31.32720929188875], [114.4567721286683, 31.327789035303407], [114.43006214173116, 31.290439583670025], [114.42465326089358, 31.24789977466709], [114.49495093555817, 31.18875872357869], [114.52548242847398, 31.106055735319], [114.5294331747979, 31.062963004837492], [114.53916295086879, 31.02195264389783], [114.59911553919453, 30.96054190067918], [114.64808539326442, 30.94687473659358], [114.70010524853569, 30.957001387410166], [114.70803800784505, 31.002635836468166], [114.75775699716834, 30.99187604241974], [114.792756495959, 31.01473780220156], [114.8260793532015, 30.976933562826297], [114.87118316739526, 30.968586126263492], [114.88394060901341, 31.011781471042514], [114.92166018995782, 31.02230043663918], [114.96949745050587, 31.02267504293036], [115.00160291342324, 31.01624501319558], [115.01634923827048, 30.973245922663164], [115.03604947818103, 30.933439533629908], [115.07347029889061, 30.900812214637238], [115.06846715382372, 30.862165227568905], [115.0178742490748, 30.867498333730005], [114.97435788459956, 30.855565725076243], [114.94917281316509, 30.823032194090004], [114.89631023875715, 30.823179334867746], [114.87186989283045, 30.784706202156208], [114.83278587493088, 30.760256911767684], [114.79926231706295, 30.731576023648607], [114.81532842107435, 30.691292470525447], [114.84807611362066, 30.649680105733186], [114.77467482853454, 30.618189970341255], [114.73035581643957, 30.595582352157813], [114.68168474300916, 30.583422373193844], [114.63040956330998, 30.588701957252773], [114.58281757645237, 30.554148365501465], [114.59813007472009, 30.50360888489002], [114.60295035352105, 30.46079260183859], [114.60031956941508, 30.417490267126748], [114.59367991180697, 30.374504576430276], [114.59428189071367, 30.330956953631414], [114.61508804253756, 30.297027676560656], [114.5639957254745, 30.282441924333707], [114.5246664434448, 30.25691361197304], [114.5172108368389, 30.214021494437414], [114.52773424098086, 30.12755952611681], [114.55058271327877, 30.010650822972757], [114.49942788890903, 30.011975193382355], [114.45191168910134, 30.027809481972703], [114.41042426569821, 30.05352066089276], [114.3637597254038, 30.067892340885578], [114.31703285113706, 30.04895892400592], [114.27459552916483, 30.02348862707798], [114.198318209865, 30.013897038935408], [114.19842524384542, 30.05729749902533], [114.18922612199303, 30.0999800023168], [114.18652390282004, 30.142970177685232], [114.1636976987706, 30.182018542612905], [114.13178394785858, 30.216086040251646], [114.029929113119, 30.25848766526539], [114.00157818475451, 30.29392417551139], [113.95682667703097, 30.308942376913294], [113.87370452142922, 30.257564662727745], [113.83315352924265, 30.226707626451702], [113.75891840946726, 30.22984238733259], [113.76783211491484, 30.268770343433964], [113.76522801755534, 30.304643811736312], [113.71863481470739, 30.381135236933922], [113.64496606750987, 30.44210010195423]]]}}, {"type": "Feature", "properties": {"City": "Hefei"}, "geometry": {"type": "Polygon", "coordinates": [[[116.70630837714877, 31.8037980724865], [116.71206064745712, 31.84419304913929], [116.76260447803342, 31.8497981361826], [116.75965258733203, 31.88975169688984], [116.7720934386266, 31.921478168354916], [116.81387521563053, 31.95175545611726], [116.92384558038084, 31.99683257032872], [116.97482205568849, 32.00615206317522], [117.0799408654895, 32.00324030442591], [117.03193864033346, 32.07394377043808], [116.98547488197745, 32.15180411525422], [117.00373041087188, 32.17716305435946], [117.05278944364011, 32.181381361820954], [117.08108685588242, 32.21779435979064], [117.0856039572902, 32.26016026324528], [117.06149362722836, 32.298513040754116], [117.05820275295324, 32.341556722692495], [117.0496591675413, 32.38444881595147], [117.00836342743125, 32.40831389525478], [116.95534468438342, 32.407047509649686], [116.90746290913758, 32.41945723004965], [116.89800959915344, 32.504594846787384], [116.8831875657006, 32.54592176793911], [116.86154304421783, 32.58542493503187], [116.91468214227119, 32.579882268830254], [116.96244802926755, 32.59438774983618], [117.00503695988435, 32.61984474672086], [117.20039463659315, 32.63283412500851], [117.20493396937907, 32.58980379019658], [117.22764418270474, 32.505393018493], [117.26066384313481, 32.47032662680264], [117.30995025740884, 32.47576675273504], [117.35881752587753, 32.493166128126894], [117.40059042062786, 32.47677007301725], [117.37004108353206, 32.39609152239004], [117.4214099003436, 32.38093506102919], [117.430631390156, 32.3599192871186], [117.44166765517609, 32.283022117800655], [117.45906706175509, 32.24313096363133], [117.50573155623806, 32.22318541225148], [117.55805018978519, 32.22716737418939], [117.60629322553908, 32.24478087821644], [117.65785374000555, 32.25352964639858], [117.71020360851064, 32.25826068279541], [117.81552316157857, 32.26037431062829], [117.91925071884259, 32.230623193429906], [117.9116657772039, 32.18770881581516], [117.88922760315084, 32.14911979499919], [117.85668061560078, 32.02414009648669], [117.76963006698385, 31.992672200287817], [117.73556701621952, 31.959643632255847], [117.68937071325347, 31.881921464539563], [117.63394857719034, 31.808489028587854], [117.59922994927969, 31.776031241026182], [117.57601146661294, 31.73745106836275], [117.57207403430732, 31.702679022134202], [117.5352641975404, 31.672281291781765], [117.50699793920296, 31.635779134628024], [117.5294940882979, 31.566270658582386], [117.42267629564932, 31.60336147000927], [117.36140831703, 31.629621130857537], [117.35515659474163, 31.5608795819355], [117.28461362501386, 31.54406433646457], [117.18961249624279, 31.571492276922935], [117.1381054226763, 31.57472509138534], [117.0862505576969, 31.570016271495493], [116.93244277523625, 31.545856889359758], [116.84119617707263, 31.540403437565917], [116.79454951439418, 31.57767704543498], [116.76866890728553, 31.61502198488415], [116.76518183140841, 31.74425565340247], [116.75183131121678, 31.785957183934105], [116.70630837714877, 31.8037980724865]]]}}, {"type": "Feature", "properties": {"City": "Nanchang"}, "geometry": {"type": "Polygon", "coordinates": [[[115.4549999251836, 28.74794937437546], [115.46817650300505, 28.78798760472649], [115.49546621179714, 28.825149771317747], [115.51594688849893, 28.864929403367185], [115.50774217543898, 28.940265883320095], [115.48954005177694, 28.981129127606014], [115.4916848701684, 29.023793779217353], [115.53715431961693, 29.005542670060784], [115.57603325513708, 28.97737455330745], [115.61955408974701, 28.955096917705344], [115.66966997144738, 28.95486946557936], [115.75839263104162, 28.91210666699658], [115.82377646955214, 28.905547378026984], [115.84804730764866, 28.943708362991195], [115.93701087900878, 29.049433621493684], [115.96057720423109, 29.088294677493153], [115.9976591230814, 29.115588884392178], [116.04814058383893, 29.113930026541805], [116.10296520004188, 29.14329773147832], [116.17795843654002, 29.20776738880257], [116.20745984215549, 29.18837923696806], [116.25415108651598, 29.150668583620533], [116.30981850106492, 29.096798215975266], [116.36727849591755, 29.06088011510806], [116.39601290820066, 29.032150163393805], [116.43372354355503, 29.001623136009755], [116.47143417054941, 28.94595569860358], [116.47913943790972, 28.923379289609137], [116.4735968208364, 28.92250089134286], [116.44270857678039, 28.936034254278006], [116.42778841068828, 28.937073221295265], [116.3916965192412, 28.925970015159486], [116.34527276297084, 28.90457975673798], [116.34728829635162, 28.888344173796728], [116.28719301976928, 28.87793660507685], [116.28865113238851, 28.85700112896775], [116.29640998576905, 28.814051053680718], [116.40302260622113, 28.735138310402498], [116.44694470666, 28.714225212574657], [116.4739891766245, 28.678347236602374], [116.48014271999115, 28.63500032427297], [116.51129848940266, 28.552248331894617], [116.5594389614802, 28.478048839402], [116.53936856500495, 28.438126529305702], [116.5426861513568, 28.395528709756164], [116.52105500746075, 28.355735717432037], [116.5083554666705, 28.313588288624576], [116.47924648247964, 28.278892087095844], [116.45553747826929, 28.24012018009767], [116.40964440719196, 28.22812070424451], [116.34311011058969, 28.20092914263252], [116.29367206168058, 28.20833122816522], [116.24884917203508, 28.192826935638273], [116.21983381428299, 28.156333695345484], [116.17214376779961, 28.163526187327637], [116.14731543993818, 28.200362796831328], [116.10736639327826, 28.229547637774118], [116.07748589834081, 28.305227498440082], [116.03649340186223, 28.275922276594162], [115.98811217497406, 28.26372220113292], [115.94125151432127, 28.277326912594468], [115.89752998906548, 28.298859861300016], [115.8655002458219, 28.331611989499763], [115.82890891535328, 28.35999861955725], [115.75743838370356, 28.337547063910655], [115.70919098518758, 28.349809602023733], [115.66356091638377, 28.33281149549229], [115.62919464097281, 28.33457283110525], [115.61584411751976, 28.376880767659234], [115.57848578068982, 28.383538239671918], [115.53197285406483, 28.38381024948493], [115.56083663268089, 28.473201834532823], [115.57861958213066, 28.559164389756948], [115.56742720504066, 28.600696409978916], [115.55884339405823, 28.664149477100402], [115.5729832438427, 28.707505274135663], [115.5430359560321, 28.737158317568255], [115.49572928261699, 28.72439190773666], [115.4549999251836, 28.74794937437546]]]}}, {"type": "Feature", "properties": {"City": "Nanjing"}, "geometry": {"type": "Polygon", "coordinates": [[[118.72206285793214, 31.36468360332517], [118.76767051035729, 31.388918820314856], [118.80457850059354, 31.419619770110543], [118.8456022647019, 31.44643234052894], [118.86967690524477, 31.484776147928674], [118.87329328019166, 31.563118087091123], [118.87896518073946, 31.606184062609664], [118.85990698686001, 31.64610642077742], [118.79496017101961, 31.63484719828329], [118.76919556586766, 31.658038925059092], [118.74418444575011, 31.693341654964538], [118.69631155986387, 31.67826986119794], [118.64437189466871, 31.687758892394147], [118.64280675146485, 31.75363759043148], [118.58947594759847, 31.765253584313076], [118.55093589660851, 31.793256747157326], [118.52542090315956, 31.83103870112826], [118.48937805130865, 31.86528014100433], [118.44853263540521, 31.892654555226077], [118.4001558971333, 31.908141007661296], [118.34945587760878, 31.91657767816128], [118.33030849267882, 31.956678371866207], [118.34819844090525, 31.99692173640473], [118.37130547494299, 32.03610829946739], [118.4208683962386, 32.101585708547745], [118.49032783937275, 32.13693298714205], [118.50208203935654, 32.221058410298596], [118.56185181575609, 32.228054766574814], [118.6107547079459, 32.24425918378755], [118.71053160439565, 32.3416726535798], [118.71973962658073, 32.383619453012436], [118.71898602828124, 32.42722499013273], [118.70990733666689, 32.46954184760627], [118.66764839411206, 32.4808367494771], [118.62017684429853, 32.45734622985023], [118.58944914527689, 32.47563301286404], [118.59809983303917, 32.51797663105991], [118.5617670312645, 32.55207983553388], [118.55833357867941, 32.59104786180877], [118.61059418207826, 32.599649509996546], [118.66281029954817, 32.61280383061316], [118.71517349606499, 32.618547135784844], [118.75798091615226, 32.593473652086544], [118.81117793033643, 32.5902853594881], [118.86264044573463, 32.57996705904068], [118.9110886147595, 32.56376262304847], [118.94651615912865, 32.53128253740365], [119.0397336665913, 32.48942046974437], [119.02113471421436, 32.42691730493519], [119.01216746195671, 32.382651764370884], [119.00670060734448, 32.33313349697371], [119.01386197156704, 32.28767736037193], [119.02704753204304, 32.26007112622579], [119.05594695716613, 32.246274676810025], [119.08805246754363, 32.242974933403055], [119.15032382666885, 32.253877383197455], [119.20289663395032, 32.254626505951606], [119.25235695323936, 32.24034406157889], [119.21301879010132, 32.21053496093315], [119.16678684646685, 32.19629701028328], [119.11476693365573, 32.18883249397781], [119.04466093572489, 32.14969499987413], [119.11730862430025, 32.08863650104798], [119.12564265652472, 32.04619031825069], [119.12521909727059, 32.00350338254398], [119.10526459130136, 31.96838345928662], [119.12559367173131, 31.926499111560254], [119.1146465040294, 31.88568946160338], [119.06870446574398, 31.867393714724667], [119.01571693241047, 31.868183001576256], [118.97765405356947, 31.852638619162366], [119.00620122919784, 31.814366095381533], [119.05761017584211, 31.805644083715126], [119.10633920260368, 31.789083037386423], [119.1328129008142, 31.75251393344907], [119.1751475993884, 31.72773920787027], [119.20592438576422, 31.663095543860177], [119.20502361448735, 31.61968626681642], [119.18416395927068, 31.580352507055796], [119.14413461347606, 31.470257290965794], [119.17121026818953, 31.433090676719114], [119.20873354047214, 31.403076499957866], [119.21873531020807, 31.361602367140964], [119.19689017448461, 31.287594688174018], [119.13613053896353, 31.308521220435953], [119.09413914826746, 31.28075437725732], [119.04454053942962, 31.268367018306453], [118.95298185267052, 31.239320475193995], [118.85114493020602, 31.2211763449797], [118.79681515912817, 31.218969144482305], [118.75622403304395, 31.236707373349283], [118.74003748760067, 31.280170265675263], [118.72206285793214, 31.36468360332517]]]}}, {"type": "Feature", "properties": {"City": "Changsha"}, "geometry": {"type": "Polygon", "coordinates": [[[111.88405813220344, 28.0937457429817], [111.90569367833416, 28.132985760723976], [111.90735691066804, 28.17713089208588], [111.94104096143542, 28.208803856655614], [112.06175326869612, 28.250920080749992], [112.1115480863985, 28.255865279235056], [112.15025303739341, 28.232294482015295], [112.1809762804122, 28.196603819729923], [112.22702987509035, 28.20167375753352], [112.2618955928994, 28.232941027394666], [112.2934258812509, 28.266870287411194], [112.34841109491126, 28.264386585032693], [112.39379135659095, 28.281277697855682], [112.43807018874166, 28.302048148367625], [112.48597883527316, 28.31134984463808], [112.53291973826185, 28.311916184556413], [112.55381066163861, 28.350719284433975], [112.5667954978763, 28.39239404963609], [112.61975187101982, 28.466629102409296], [112.70253058240337, 28.484715215594132], [112.74468243877462, 28.506453383156753], [112.79325989435326, 28.50620367739307], [112.83051123158621, 28.481491287927774], [112.92442432577867, 28.498877363514065], [112.9402229354575, 28.45282370926068], [113.00061258010822, 28.45661397929508], [113.04260838355144, 28.481397647901485], [113.08754718380575, 28.474940864463072], [113.13086736818815, 28.45241350930941], [113.16562607000779, 28.483818968320563], [113.16905953679337, 28.52724164551682], [113.16119373771612, 28.570824898140962], [113.19409742394822, 28.62873524602856], [113.23220936641432, 28.60053148758341], [113.28217362525967, 28.59682593338068], [113.33193267869429, 28.599296334798343], [113.3756854214344, 28.59497537822287], [113.41709257855425, 28.570570752778], [113.4814240785877, 28.511113126070622], [113.53095132524108, 28.503242788689846], [113.58091552141808, 28.500170501986375], [113.61472438742899, 28.470785025649754], [113.63104028599446, 28.428093582047392], [113.6779768095592, 28.41579979850144], [113.72862321633222, 28.416053967917573], [113.77520746072379, 28.43109007499658], [113.8075850436998, 28.463766354141125], [113.85577451640222, 28.472470581071082], [113.90622031812242, 28.473460450831524], [113.95036990330748, 28.493851930000666], [113.98747849305238, 28.522202909302234], [114.03843714269073, 28.515460766593456], [114.12014573168726, 28.547044514180776], [114.16391622851236, 28.52498091181405], [114.18463324660839, 28.486012797391176], [114.1774228625576, 28.442915593800585], [114.22042198369391, 28.420183123939957], [114.25108276515031, 28.37411618590542], [114.22109082099462, 28.339165710092047], [114.19478661807254, 28.301887623926213], [114.15659438036107, 28.274062863683536], [114.12527362388157, 28.23914366826879], [114.03620759170404, 28.206757142269534], [113.97735636417828, 28.158866424448444], [113.9102379675911, 28.094120295719446], [113.87370896915353, 28.064253215742177], [113.81407743829571, 28.023091298254982], [113.78041127626426, 27.990704826619538], [113.74103734190331, 27.963330409120445], [113.71146461320102, 27.93044006082107], [113.72522537021206, 27.870951170854294], [113.67355337159218, 27.866010532565614], [113.6240840762188, 27.873675703479332], [113.58969098897101, 27.90300317723352], [113.58370249572339, 27.945137261938545], [113.53354653081465, 27.940923405408252], [113.48978483137056, 27.919069336787242], [113.44384723247511, 27.90175909251334], [113.40152592073744, 27.87936107982582], [113.33432719692895, 27.826239760124608], [113.27827630720977, 27.84625671878625], [113.26265164669634, 27.931911535619456], [113.21594256378894, 28.003052076180794], [113.18005568165393, 28.033503249265905], [113.12934680922099, 27.968016936458962], [113.10439369687917, 27.927791360264088], [113.06867181866659, 27.94421419755466], [113.06912217883708, 28.006525662495424], [113.03413610216333, 28.038140734690437], [113.0103378644947, 27.983271458357027], [112.9567930161813, 27.960039529653137], [112.8820405938031, 27.952392177837645], [112.84559637951266, 27.979209207590994], [112.82540112137193, 28.019100349598336], [112.79835663168993, 28.054550252443608], [112.74809816559143, 28.05994576279014], [112.73835949007096, 27.97356849627955], [112.72615937202349, 27.931661844340315], [112.68390491544861, 27.910169001140407], [112.63911320011898, 27.89202492557637], [112.60170587049305, 27.890499879460016], [112.57469258364165, 27.92722951555962], [112.53502002332397, 27.95404208590733], [112.44365746627867, 28.034065143529048], [112.39765293530932, 28.01910482316275], [112.39177134064816, 27.977175867555708], [112.35732477827463, 27.947879572287984], [112.30696816423719, 27.942131858763688], [112.20723151242066, 27.95297190415605], [112.16166838053175, 27.936067460914057], [112.13044127690762, 27.902468087470705], [112.0890207434085, 27.878634234541064], [112.03932844844562, 27.8735375039566], [111.9893553237017, 27.87541472177976], [111.97364587983735, 27.916790771172785], [111.95360671876732, 27.95745775065523], [111.91193195584385, 27.976770119716406], [111.88558309586729, 28.015952274600803], [111.88405813220344, 28.0937457429817]]]}}, {"type": "Feature", "properties": {"City": "Hangzhou"}, "geometry": {"type": "Polygon", "coordinates": [[[118.32359312028964, 29.51544532473826], [118.40218476689259, 29.521202094087183], [118.4525770538689, 29.534837970955312], [118.46567346037241, 29.572410383777267], [118.50566714032963, 29.609804390588526], [118.54672207616855, 29.634235833952427], [118.59553583039103, 29.647688917303636], [118.6467664463232, 29.65213907469715], [118.69468836816331, 29.66705479626739], [118.72456435101363, 29.70285691211938], [118.72608937423725, 29.74436670721915], [118.70975571825385, 29.78669690910968], [118.7047971654159, 29.830213332498065], [118.73432092086934, 29.864967516364924], [118.8189457233975, 29.913790238339956], [118.85385160584114, 29.944687336458315], [118.87167901041968, 29.98575567877145], [118.87735105833505, 30.02873250318704], [118.86855317650569, 30.099765992583336], [118.87951812049434, 30.144218725912875], [118.84715394982207, 30.16819536755988], [118.89864324598409, 30.231327310108995], [118.90736523036712, 30.27404550255509], [118.90283926884848, 30.317459302129514], [118.94071930950504, 30.36669223302286], [118.99041603041134, 30.358576613207646], [119.03782066004261, 30.341177265521374], [119.08860989528466, 30.334091748401363], [119.1375573813773, 30.321111299968877], [119.18456970048378, 30.304282640975426], [119.23406126650444, 30.31576033726402], [119.2677319368553, 30.34910553313819], [119.31325493196084, 30.36584497527362], [119.36672845595047, 30.37419686199858], [119.37418406206098, 30.410025757030024], [119.42606571846429, 30.409762684222166], [119.47421060280641, 30.423420923570788], [119.52362194566062, 30.422020702857964], [119.56896207446341, 30.444093319944333], [119.71302227553024, 30.444030815359653], [119.72199396565175, 30.486726729338972], [119.75039843698639, 30.521070754402437], [119.80380057574682, 30.538385444861394], [119.92469574127537, 30.45743935307446], [119.97416506149074, 30.44896263020527], [120.02581921821663, 30.4489715328369], [120.0730143779448, 30.459517304158805], [120.0837340279523, 30.500032735721454], [120.13167384708683, 30.508678934776476], [120.1827840903605, 30.507724633601892], [120.22247454805793, 30.53759614130994], [120.26719488510473, 30.525596736204143], [120.32816410133213, 30.558585147869646], [120.36675321934713, 30.49589463340014], [120.35449066704989, 30.453702682345543], [120.35023672231598, 30.41098442978354], [120.39329823499017, 30.3826513018715], [120.38532093978216, 30.37619007543754], [120.3719168491808, 30.348160211451503], [120.35904785191727, 30.30613764299314], [120.34700827960823, 30.28831906845729], [120.32795901447602, 30.284979170955193], [120.30429901445913, 30.295877255612123], [120.26290966650872, 30.294650951222007], [120.2628784172259, 30.274188164452955], [120.28356865642843, 30.25706079006891], [120.28796981296564, 30.244909702482367], [120.30507938155135, 30.23073868514836], [120.3356956069283, 30.219550799932342], [120.3778073475953, 30.222841632236882], [120.38751924757267, 30.229829032974642], [120.39520225878474, 30.24519063017389], [120.39247328415593, 30.25586570011685], [120.4020291480009, 30.268703434033593], [120.40010280159086, 30.28458682564455], [120.40714371481874, 30.288894286735086], [120.42207280806393, 30.28955422941389], [120.46191936620728, 30.316647736463906], [120.49468479406261, 30.319385621772458], [120.55737532927652, 30.28270506380806], [120.55886019107992, 30.256173373980022], [120.56607944425609, 30.24147177595391], [120.57398991419646, 30.196274311278295], [120.58164621096418, 30.179472369599928], [120.58260938408424, 30.16484651651282], [120.59150528386039, 30.151598535270523], [120.57487279598924, 30.144642381677436], [120.53499060811689, 30.172239772963028], [120.49083660291168, 30.19330896517999], [120.4664765432423, 30.15797063335383], [120.41543768293826, 30.1528292473938], [120.36344013095828, 30.159147805640377], [120.32788766071519, 30.13378447149637], [120.34429271902174, 30.0936391548744], [120.35459771980021, 29.98957261720143], [120.31381920999941, 29.963513700621704], [120.21411821495782, 29.943425444339926], [120.16915704118209, 29.923778649804827], [120.11087217648898, 29.868574917299124], [120.08641845628506, 29.839546227498246], [120.03869709747116, 29.83269701424822], [120.03748874903346, 29.78922077271326], [119.95243136978789, 29.757008238114754], [119.87812042070937, 29.761948902039656], [119.91084135003985, 29.729036281082877], [119.96283891564622, 29.69440694981608], [119.92118199405711, 29.6678574009474], [119.87414739112056, 29.681243651017628], [119.82416536729455, 29.6780999484858], [119.77157023196969, 29.61237730678763], [119.76946995663297, 29.571795034261033], [119.73565658975429, 29.53920788123782], [119.72605177179398, 29.500913100921323], [119.72206086760039, 29.463363086674544], [119.62961473030185, 29.428390364771516], [119.59371008520262, 29.39761360824112], [119.56246957524974, 29.363835906197043], [119.5157694491236, 29.343582656797263], [119.47151735543683, 29.360393524903913], [119.46143978686466, 29.403334597116018], [119.37180294106196, 29.425496386543788], [119.34530696254978, 29.391656267310125], [119.35982578638604, 29.349807559614398], [119.36081120577241, 29.307009157150215], [119.26480234280724, 29.250293801683412], [119.22397476647846, 29.275750868491656], [119.20509492426599, 29.25420443470114], [119.19844194828569, 29.216636585762902], [119.14863385195308, 29.233554363241815], [119.05276313998179, 29.222906030219708], [119.00538515140751, 29.24216932695315], [119.00437741502824, 29.281610090633148], [118.95815442641657, 29.300151049832035], [118.93008431810193, 29.345611573269906], [118.89155769669628, 29.31866971730136], [118.84445178173337, 29.30447193404481], [118.80470335121882, 29.277258004030788], [118.76735839961876, 29.214973297517943], [118.71721581458335, 29.207932374061187], [118.64914761077668, 29.2126055248273], [118.61869640026327, 29.24767190873195], [118.61281036877526, 29.28827642689266], [118.62110878085208, 29.333505148348728], [118.57553226844901, 29.327645873569782], [118.55601485309198, 29.37043983261232], [118.46673022824562, 29.360179468658888], [118.4303440141034, 29.3909070803899], [118.37409237869522, 29.463309524583117], [118.32359312028964, 29.51544532473826]]]}}]}